[{"OBJECT_NAME":"STARLINK-34429","OBJECT_ID":"2025-130AC","EPOCH":"2026-03-09T07:05:03.187392","MEAN_MOTION":15.30206785,"ECCENTRICITY":0.00017157,"INCLINATION":53.1593,"RA_OF_ASC_NODE":90.2926,"ARG_OF_PERICENTER":34.6476,"MEAN_ANOMALY":325.4637,"EPHEMERIS_TYPE":0,"CLASSIFICATION_TYPE":"U","NORAD_CAT_ID":64464,"ELEMENT_SET_NO":999,"REV_AT_EPOCH":4064,"BSTAR":0.0008131646,"MEAN_MOTION_DOT":0.00023807,"MEAN_MOTION_DDOT":0},{"OBJECT_NAME":"FENGYUN 1C DEB","OBJECT_ID":"1999-025AQG","EPOCH":"2026-03-09T10:43:06.043872","MEAN_MOTION":15.25746961,"ECCENTRICITY":0.00178142,"INCLINATION":98.9311,"RA_OF_ASC_NODE":250.2123,"ARG_OF_PERICENTER":328.3876,"MEAN_ANOMALY":31.6286,"EPHEMERIS_TYPE":0,"CLASSIFICATION_TYPE":"U","NORAD_CAT_ID":30674,"ELEMENT_SET_NO":999,"REV_AT_EPOCH":98658,"BSTAR":0.015201752,"MEAN_MOTION_DOT":0.00411052,"MEAN_MOTION_DDOT":0}]
